start=new Date('2022-09-15T00:00:00.000Z').valueOf();
sats=[{"MEAN_MOTION":"15.06385835","PERIOD":"95.593","CENTER_NAME":"EARTH","APOAPSIS":"548.209","MEAN_ANOMALY":"277.1340","OBJECT_TYPE":"PAYLOAD","NORAD_CAT_ID":"47741","LAUNCH_DATE":"2021-03-04","TIME_SYSTEM":"UTC","TLE_LINE2":"2 47741  53.0551 161.2294 0001374  82.9805 277.1340 15.06385835 86031","SEMIMAJOR_AXIS":"6925.392","OBJECT_ID":"2021-017V","CLASSIFICATION_TYPE":"U","EPHEMERIS_TYPE":"0","COUNTRY_CODE":"US","RCS_SIZE":"LARGE","DECAY_DATE":null,"REF_FRAME":"TEME","EPOCH":"2022-09-14T19:56:03.506496","FILE":"3574287","MEAN_ELEMENT_THEORY":"SGP4","ARG_OF_PERICENTER":"82.9805","REV_AT_EPOCH":"8603","RA_OF_ASC_NODE":"161.2294","OBJECT_NAME":"STARLINK-2154","ELEMENT_SET_NO":"999","MEAN_MOTION_DDOT":"0.0000000000000","PERIAPSIS":"546.305","GP_ID":"212611113","MEAN_MOTION_DOT":"-0.00002219","BSTAR":"-0.00013014000000","ECCENTRICITY":"0.00013740","TLE_LINE1":"1 47741U 21017V   22257.83059614 -.00002219  00000-0 -13014-3 0  9996","SITE":"AFETR","INCLINATION":"53.0551"},{"APOAPSIS":"548.193","CENTER_NAME":"EARTH","PERIOD":"95.592","MEAN_MOTION":"15.06402145","MEAN_ANOMALY":"290.4428","LAUNCH_DATE":"2021-03-04","NORAD_CAT_ID":"47742","OBJECT_TYPE":"PAYLOAD","TIME_SYSTEM":"UTC","TLE_LINE2":"2 47742  53.0524 151.1661 0001424  69.6714 290.4428 15.06402145 86225","OBJECT_ID":"2021-017W","SEMIMAJOR_AXIS":"6925.342","EPHEMERIS_TYPE":"0","COUNTRY_CODE":"US","CLASSIFICATION_TYPE":"U","FILE":"3574287","MEAN_ELEMENT_THEORY":"SGP4","EPOCH":"2022-09-14T20:13:17.831136","DECAY_DATE":null,"REF_FRAME":"TEME","RCS_SIZE":"LARGE","REV_AT_EPOCH":"8622","RA_OF_ASC_NODE":"151.1661","ARG_OF_PERICENTER":"69.6714","ELEMENT_SET_NO":"999","OBJECT_NAME":"STARLINK-2156","MEAN_MOTION_DDOT":"0.0000000000000","BSTAR":"0.00027406000000","MEAN_MOTION_DOT":"0.00003803","PERIAPSIS":"546.221","GP_ID":"212611864","SITE":"AFETR","TLE_LINE1":"1 47742U 21017W   22257.84256749  .00003803  00000-0  27406-3 0  9994","ECCENTRICITY":"0.00014240","INCLINATION":"53.0524"},{"OBJECT_ID":"2021-017X","SEMIMAJOR_AXIS":"6925.354","TIME_SYSTEM":"UTC","TLE_LINE2":"2 47743  53.0523 151.3554 0001433  69.5348 290.5795 15.06398073 85535","APOAPSIS":"548.212","CENTER_NAME":"EARTH","PERIOD":"95.592","MEAN_MOTION":"15.06398073","LAUNCH_DATE":"2021-03-04","NORAD_CAT_ID":"47743","OBJECT_TYPE":"PAYLOAD","MEAN_ANOMALY":"290.5795","BSTAR":"0.00015291000000","MEAN_MOTION_DOT":"0.00001997","GP_ID":"212586306","PERIAPSIS":"546.227","MEAN_MOTION_DDOT":"0.0000000000000","INCLINATION":"53.0523","SITE":"AFETR","TLE_LINE1":"1 47743U 21017X   22257.80201564  .00001997  00000-0  15291-3 0  9997","ECCENTRICITY":"0.00014330","MEAN_ELEMENT_THEORY":"SGP4","FILE":"3574079","EPOCH":"2022-09-14T19:14:54.151296","REF_FRAME":"TEME","DECAY_DATE":null,"RCS_SIZE":"LARGE","EPHEMERIS_TYPE":"0","COUNTRY_CODE":"US","CLASSIFICATION_TYPE":"U","ELEMENT_SET_NO":"999","OBJECT_NAME":"STARLINK-2157","RA_OF_ASC_NODE":"151.3554","ARG_OF_PERICENTER":"69.5348","REV_AT_EPOCH":"8553"},{"MEAN_MOTION_DDOT":"0.0000000000000","GP_ID":"212610866","PERIAPSIS":"546.166","MEAN_MOTION_DOT":"0.00000896","BSTAR":"0.00007905800000","ECCENTRICITY":"0.00015570","TLE_LINE1":"1 47744U 21017Y   22257.77526733  .00000896  00000-0  79058-4 0  9991","SITE":"AFETR","INCLINATION":"53.0537","CLASSIFICATION_TYPE":"U","EPHEMERIS_TYPE":"0","COUNTRY_CODE":"US","RCS_SIZE":"LARGE","REF_FRAME":"TEME","DECAY_DATE":null,"EPOCH":"2022-09-14T18:36:23.097312","MEAN_ELEMENT_THEORY":"SGP4","FILE":"3574287","ARG_OF_PERICENTER":"76.9490","RA_OF_ASC_NODE":"151.4162","REV_AT_EPOCH":"8621","OBJECT_NAME":"STARLINK-2158","ELEMENT_SET_NO":"999","TIME_SYSTEM":"UTC","TLE_LINE2":"2 47744  53.0537 151.4162 0001557  76.9490 283.1673 15.06389926 86210","OBJECT_ID":"2021-017Y","SEMIMAJOR_AXIS":"6925.379","MEAN_MOTION":"15.06389926","PERIOD":"95.593","APOAPSIS":"548.323","CENTER_NAME":"EARTH","MEAN_ANOMALY":"283.1673","OBJECT_TYPE":"PAYLOAD","NORAD_CAT_ID":"47744","LAUNCH_DATE":"2021-03-04"},{"CLASSIFICATION_TYPE":"U","COUNTRY_CODE":"US","EPHEMERIS_TYPE":"0","DECAY_DATE":null,"REF_FRAME":"TEME","RCS_SIZE":"LARGE","FILE":"3574287","MEAN_ELEMENT_THEORY":"SGP4","EPOCH":"2022-09-14T19:24:11.978208","REV_AT_EPOCH":"8602","ARG_OF_PERICENTER":"85.4351","RA_OF_ASC_NODE":"161.3057","OBJECT_NAME":"STARLINK-2159","ELEMENT_SET_NO":"999","MEAN_MOTION_DDOT":"0.0000000000000","PERIAPSIS":"546.228","GP_ID":"212611613","BSTAR":"0.00011231000000","MEAN_MOTION_DOT":"0.00001391","ECCENTRICITY":"0.00014560","SITE":"AFETR","TLE_LINE1":"1 47745U 21017Z   22257.80847197  .00001391  00000-0  11231-3 0  9995","INCLINATION":"53.0549","PERIOD":"95.593","MEAN_MOTION":"15.06392639","APOAPSIS":"548.244","CENTER_NAME":"EARTH","MEAN_ANOMALY":"274.6804","OBJECT_TYPE":"PAYLOAD","LAUNCH_DATE":"2021-03-04","NORAD_CAT_ID":"47745","TLE_LINE2":"2 47745  53.0549 161.3057 0001456  85.4351 274.6804 15.06392639 86021","TIME_SYSTEM":"UTC","OBJECT_ID":"2021-017Z","SEMIMAJOR_AXIS":"6925.371"},{"OBJECT_ID":"2021-017AA","SEMIMAJOR_AXIS":"6925.371","TLE_LINE2":"2 47746  53.0546 161.0611 0001289  72.8777 287.2353 15.06392518 86023","TIME_SYSTEM":"UTC","APOAPSIS":"548.129","CENTER_NAME":"EARTH","PERIOD":"95.593","MEAN_MOTION":"15.06392518","LAUNCH_DATE":"2021-03-04","NORAD_CAT_ID":"47746","OBJECT_TYPE":"PAYLOAD","MEAN_ANOMALY":"287.2353","BSTAR":"-0.00008277200000","MEAN_MOTION_DOT":"-0.00001514","GP_ID":"212612364","PERIAPSIS":"546.344","MEAN_MOTION_DDOT":"0.0000000000000","INCLINATION":"53.0546","SITE":"AFETR","TLE_LINE1":"1 47746U 21017AA  22257.86744918 -.00001514  00000-0 -82772-4 0  9997","ECCENTRICITY":"0.00012890","MEAN_ELEMENT_THEORY":"SGP4","FILE":"3574287","EPOCH":"2022-09-14T20:49:07.609152","REF_FRAME":"TEME","DECAY_DATE":null,"RCS_SIZE":"LARGE","COUNTRY_CODE":"US","EPHEMERIS_TYPE":"0","CLASSIFICATION_TYPE":"U","ELEMENT_SET_NO":"999","OBJECT_NAME":"STARLINK-2160","RA_OF_ASC_NODE":"161.0611","ARG_OF_PERICENTER":"72.8777","REV_AT_EPOCH":"8602"},{"MEAN_ANOMALY":"286.6171","NORAD_CAT_ID":"47747","LAUNCH_DATE":"2021-03-04","OBJECT_TYPE":"PAYLOAD","CENTER_NAME":"EARTH","APOAPSIS":"548.256","MEAN_MOTION":"15.06390645","PERIOD":"95.593","TLE_LINE2":"2 47747  53.0530 151.0552 0001464  73.4978 286.6171 15.06390645 86205","TIME_SYSTEM":"UTC","OBJECT_ID":"2021-017AB","SEMIMAJOR_AXIS":"6925.377","RA_OF_ASC_NODE":"151.0552","ARG_OF_PERICENTER":"73.4978","REV_AT_EPOCH":"8620","ELEMENT_SET_NO":"999","OBJECT_NAME":"STARLINK-2161","EPHEMERIS_TYPE":"0","COUNTRY_CODE":"US","CLASSIFICATION_TYPE":"U","EPOCH":"2022-09-14T20:45:08.299296","FILE":"3574287","MEAN_ELEMENT_THEORY":"SGP4","RCS_SIZE":"LARGE","REF_FRAME":"TEME","DECAY_DATE":null,"TLE_LINE1":"1 47747U 21017AB  22257.86467939 -.00002346  00000-0 -13865-3 0  9993","SITE":"AFETR","ECCENTRICITY":"0.00014640","INCLINATION":"53.0530","MEAN_MOTION_DDOT":"0.0000000000000","MEAN_MOTION_DOT":"-0.00002346","BSTAR":"-0.00013865000000","GP_ID":"212612606","PERIAPSIS":"546.228"},{"MEAN_ANOMALY":"296.7342","OBJECT_TYPE":"PAYLOAD","LAUNCH_DATE":"2021-03-04","NORAD_CAT_ID":"47748","PERIOD":"95.593","MEAN_MOTION":"15.06391409","CENTER_NAME":"EARTH","APOAPSIS":"548.358","TLE_LINE2":"2 47748  53.0536 151.0927 0001615  63.3812 296.7342 15.06391409 86178","TIME_SYSTEM":"UTC","SEMIMAJOR_AXIS":"6925.375","OBJECT_ID":"2021-017AC","RA_OF_ASC_NODE":"151.0927","ARG_OF_PERICENTER":"63.3812","REV_AT_EPOCH":"8617","OBJECT_NAME":"STARLINK-2162","ELEMENT_SET_NO":"999","CLASSIFICATION_TYPE":"U","EPHEMERIS_TYPE":"0","COUNTRY_CODE":"US","DECAY_DATE":null,"REF_FRAME":"TEME","RCS_SIZE":"LARGE","FILE":"3574287","MEAN_ELEMENT_THEORY":"SGP4","EPOCH":"2022-09-14T20:34:31.477728","ECCENTRICITY":"0.00016150","SITE":"AFETR","TLE_LINE1":"1 47748U 21017AC  22257.85730877 -.00000285  00000-0 -25857-6 0  9994","INCLINATION":"53.0536","MEAN_MOTION_DDOT":"0.0000000000000","GP_ID":"212611366","PERIAPSIS":"546.121","BSTAR":"-0.00000025857000","MEAN_MOTION_DOT":"-0.00000285"},{"GP_ID":"212580449","PERIAPSIS":"546.280","BSTAR":"-0.00005450300000","MEAN_MOTION_DOT":"-0.00001093","MEAN_MOTION_DDOT":"0.0000000000000","INCLINATION":"53.0550","ECCENTRICITY":"0.00013950","SITE":"AFETR","TLE_LINE1":"1 47749U 21017AD  22257.40762642 -.00001093  00000-0 -54503-4 0  9997","REF_FRAME":"TEME","DECAY_DATE":null,"RCS_SIZE":"MEDIUM","FILE":"3574027","MEAN_ELEMENT_THEORY":"SGP4","EPOCH":"2022-09-14T09:46:58.922688","CLASSIFICATION_TYPE":"U","COUNTRY_CODE":"US","EPHEMERIS_TYPE":"0","OBJECT_NAME":"STARLINK-2163","ELEMENT_SET_NO":"999","ARG_OF_PERICENTER":"70.5715","RA_OF_ASC_NODE":"153.1175","REV_AT_EPOCH":"8610","OBJECT_ID":"2021-017AD","SEMIMAJOR_AXIS":"6925.381","TIME_SYSTEM":"UTC","TLE_LINE2":"2 47749  53.0550 153.1175 0001395  70.5715 289.5425 15.06389450 86108","PERIOD":"95.593","MEAN_MOTION":"15.06389450","APOAPSIS":"548.212","CENTER_NAME":"EARTH","OBJECT_TYPE":"PAYLOAD","LAUNCH_DATE":"2021-03-04","NORAD_CAT_ID":"47749","MEAN_ANOMALY":"289.5425"},{"CENTER_NAME":"EARTH","APOAPSIS":"548.239","MEAN_MOTION":"15.06402334","PERIOD":"95.592","MEAN_ANOMALY":"295.1504","NORAD_CAT_ID":"47750","LAUNCH_DATE":"2021-03-04","OBJECT_TYPE":"PAYLOAD","TIME_SYSTEM":"UTC","TLE_LINE2":"2 47750  53.0536 151.1254 0001491  64.9639 295.1504 15.06402334 86174","SEMIMAJOR_AXIS":"6925.341","OBJECT_ID":"2021-017AE","EPHEMERIS_TYPE":"0","COUNTRY_CODE":"US","CLASSIFICATION_TYPE":"U","EPOCH":"2022-09-14T20:23:53.812032","FILE":"3574287","MEAN_ELEMENT_THEORY":"SGP4","RCS_SIZE":"LARGE","DECAY_DATE":null,"REF_FRAME":"TEME","RA_OF_ASC_NODE":"151.1254","ARG_OF_PERICENTER":"64.9639","REV_AT_EPOCH":"8617","ELEMENT_SET_NO":"999","OBJECT_NAME":"STARLINK-2164","MEAN_MOTION_DDOT":"0.0000000000000","MEAN_MOTION_DOT":"0.00000846","BSTAR":"0.00007567900000","GP_ID":"212611865","PERIAPSIS":"546.174","TLE_LINE1":"1 47750U 21017AE  22257.84992838  .00000846  00000-0  75679-4 0  9999","SITE":"AFETR","ECCENTRICITY":"0.00014910","INCLINATION":"53.0536"}];
